{
  "type": "FeatureCollection",
  "features": [
    {
      "type": "Feature",
      "properties": {
        "norad_id": 66375,
        "name": "STARLINK-35826",
        "group": "last-30-days",
        "lat": 40.684081411341296,
        "lon": -12.300409537280498,
        "alt_km": 339.90374165711,
        "timestamp": "2025-12-06T03:35:00.471941+00:00",
        "meta_object_name": "STARLINK-35826",
        "meta_object_id": "2025-254AD",
        "meta_epoch": "2025-12-05T01:27:35.768160",
        "meta_mean_motion": 15.74369654,
        "meta_eccentricity": 0.00027637,
        "meta_inclination": 53.1573,
        "meta_ra_of_asc_node": 312.9744,
        "meta_arg_of_pericenter": 186.5703,
        "meta_mean_anomaly": 173.5282,
        "meta_ephemeris_type": 0,
        "meta_classification_type": "U",
        "meta_norad_cat_id": 66375,
        "meta_element_set_no": 999,
        "meta_rev_at_epoch": 447,
        "meta_bstar": 0.002728124,
        "meta_mean_motion_dot": 0.00422905,
        "meta_mean_motion_ddot": 0,
        "tle_line1": "1 66375U 25254AD  25339.06083065  .00422905  00000+0  27281-2 0  9998",
        "tle_line2": "2 66375  53.1573 312.9744 0002763 186.5703 173.5282 15.74369654  4474"
      },
      "geometry": {
        "type": "Point",
        "coordinates": [
          -12.300409537280498,
          40.684081411341296
        ]
      }
    },
    {
      "type": "Feature",
      "properties": {
        "norad_id": 66376,
        "name": "SHIYAN-32 01",
        "group": "last-30-days",
        "lat": 18.978160845201046,
        "lon": -135.55709012133903,
        "alt_km": 427.7739395347444,
        "timestamp": "2025-12-06T03:35:00.471951+00:00",
        "meta_object_name": "SHIYAN-32 01",
        "meta_object_id": "2025-255A",
        "meta_epoch": "2025-12-05T18:08:58.191648",
        "meta_mean_motion": 15.42436726,
        "meta_eccentricity": 0.0013509,
        "meta_inclination": 52.9952,
        "meta_ra_of_asc_node": 211.2776,
        "meta_arg_of_pericenter": 20.546,
        "meta_mean_anomaly": 339.6085,
        "meta_ephemeris_type": 0,
        "meta_classification_type": "U",
        "meta_norad_cat_id": 66376,
        "meta_element_set_no": 999,
        "meta_rev_at_epoch": 427,
        "meta_bstar": 0.00061221,
        "meta_mean_motion_dot": 0.0002665,
        "meta_mean_motion_ddot": 0,
        "tle_line1": "1 66376U 25255A   25339.75622907  .00026650  00000+0  61221-3 0  9990",
        "tle_line2": "2 66376  52.9952 211.2776 0013509  20.5460 339.6085 15.42436726  4270"
      },
      "geometry": {
        "type": "Point",
        "coordinates": [
          -135.55709012133903,
          18.978160845201046
        ]
      }
    },
    {
      "type": "Feature",
      "properties": {
        "norad_id": 66377,
        "name": "CZ-11 DEB",
        "group": "last-30-days",
        "lat": 50.905155921618345,
        "lon": -38.91250223501932,
        "alt_km": 426.8207519773987,
        "timestamp": "2025-12-06T03:35:00.471961+00:00",
        "meta_object_name": "CZ-11 DEB",
        "meta_object_id": "2025-255B",
        "meta_epoch": "2025-12-05T03:49:57.444960",
        "meta_mean_motion": 15.43766179,
        "meta_eccentricity": 0.00138166,
        "meta_inclination": 52.9949,
        "meta_ra_of_asc_node": 213.9635,
        "meta_arg_of_pericenter": 16.3255,
        "meta_mean_anomaly": 343.8192,
        "meta_ephemeris_type": 0,
        "meta_classification_type": "U",
        "meta_norad_cat_id": 66377,
        "meta_element_set_no": 999,
        "meta_rev_at_epoch": 404,
        "meta_bstar": 0.0013050272,
        "meta_mean_motion_dot": 0.00060195,
        "meta_mean_motion_ddot": 0,
        "tle_line1": "1 66377U 25255B   25339.15969265  .00060195  00000+0  13050-2 0  9994",
        "tle_line2": "2 66377  52.9949 213.9635 0013816  16.3255 343.8192 15.43766179  4046"
      },
      "geometry": {
        "type": "Point",
        "coordinates": [
          -38.91250223501932,
          50.905155921618345
        ]
      }
    },
    {
      "type": "Feature",
      "properties": {
        "norad_id": 66378,
        "name": "SHIYAN-32 02",
        "group": "last-30-days",
        "lat": 32.401486477383244,
        "lon": 0.5838301575184118,
        "alt_km": 433.1850640717885,
        "timestamp": "2025-12-06T03:35:00.471971+00:00",
        "meta_object_name": "SHIYAN-32 02",
        "meta_object_id": "2025-255C",
        "meta_epoch": "2025-12-05T17:40:19.394112",
        "meta_mean_motion": 15.44450072,
        "meta_eccentricity": 0.0012207,
        "meta_inclination": 52.9929,
        "meta_ra_of_asc_node": 211.1536,
        "meta_arg_of_pericenter": 14.422,
        "meta_mean_anomaly": 345.7131,
        "meta_ephemeris_type": 0,
        "meta_classification_type": "U",
        "meta_norad_cat_id": 66378,
        "meta_element_set_no": 999,
        "meta_rev_at_epoch": 413,
        "meta_bstar": 0.0014477,
        "meta_mean_motion_dot": 0.00068417,
        "meta_mean_motion_ddot": 0,
        "tle_line1": "1 66378U 25255C   25339.73633558  .00068417  00000+0  14477-2 0  9991",
        "tle_line2": "2 66378  52.9929 211.1536 0012207  14.4220 345.7131 15.44450072  4136"
      },
      "geometry": {
        "type": "Point",
        "coordinates": [
          0.5838301575184118,
          32.401486477383244
        ]
      }
    },
    {
      "type": "Feature",
      "properties": {
        "norad_id": 66379,
        "name": "SHIYAN-32 03",
        "group": "last-30-days",
        "lat": 43.26635236372434,
        "lon": -105.43138884721424,
        "alt_km": 423.61328084210436,
        "timestamp": "2025-12-06T03:35:00.471984+00:00",
        "meta_object_name": "SHIYAN-32 03",
        "meta_object_id": "2025-255D",
        "meta_epoch": "2025-12-05T18:00:02.058048",
        "meta_mean_motion": 15.42771593,
        "meta_eccentricity": 0.001552,
        "meta_inclination": 52.9955,
        "meta_ra_of_asc_node": 211.2402,
        "meta_arg_of_pericenter": 21.4514,
        "meta_mean_anomaly": 338.7138,
        "meta_ephemeris_type": 0,
        "meta_classification_type": "U",
        "meta_norad_cat_id": 66379,
        "meta_element_set_no": 999,
        "meta_rev_at_epoch": 415,
        "meta_bstar": 0.00055719,
        "meta_mean_motion_dot": 0.00024512,
        "meta_mean_motion_ddot": 0,
        "tle_line1": "1 66379U 25255D   25339.75002382  .00024512  00000+0  55719-3 0  9992",
        "tle_line2": "2 66379  52.9955 211.2402 0015520  21.4514 338.7138 15.42771593  4157"
      },
      "geometry": {
        "type": "Point",
        "coordinates": [
          -105.43138884721424,
          43.26635236372434
        ]
      }
    },
    {
      "type": "Feature",
      "properties": {
        "norad_id": 66380,
        "name": "STARLINK-35139",
        "group": "last-30-days",
        "lat": -21.418306973515303,
        "lon": -81.3950579920946,
        "alt_km": 450.84701619487987,
        "timestamp": "2025-12-06T03:35:00.471994+00:00",
        "meta_object_name": "STARLINK-35139",
        "meta_object_id": "2025-257A",
        "meta_epoch": "2025-12-05T06:00:02.000160",
        "meta_mean_motion": 15.39580895,
        "meta_eccentricity": 0.00018883,
        "meta_inclination": 53.1596,
        "meta_ra_of_asc_node": 299.9469,
        "meta_arg_of_pericenter": 96.7559,
        "meta_mean_anomaly": 288.8357,
        "meta_ephemeris_type": 0,
        "meta_classification_type": "U",
        "meta_norad_cat_id": 66380,
        "meta_element_set_no": 999,
        "meta_rev_at_epoch": 523,
        "meta_bstar": 0.0021972198,
        "meta_mean_motion_dot": 0.000884,
        "meta_mean_motion_ddot": 0,
        "tle_line1": "1 66380U 25257A   25339.25002315  .00088400  00000+0  21972-2 0  9996",
        "tle_line2": "2 66380  53.1596 299.9469 0001888  96.7559 288.8357 15.39580895  5232"
      },
      "geometry": {
        "type": "Point",
        "coordinates": [
          -81.3950579920946,
          -21.418306973515303
        ]
      }
    },
    {
      "type": "Feature",
      "properties": {
        "norad_id": 66381,
        "name": "STARLINK-35158",
        "group": "last-30-days",
        "lat": -19.968966571153317,
        "lon": -80.10440011170677,
        "alt_km": 450.0998261851855,
        "timestamp": "2025-12-06T03:35:00.472007+00:00",
        "meta_object_name": "STARLINK-35158",
        "meta_object_id": "2025-257B",
        "meta_epoch": "2025-12-05T06:00:02.000160",
        "meta_mean_motion": 15.39560488,
        "meta_eccentricity": 7.29e-05,
        "meta_inclination": 53.1597,
        "meta_ra_of_asc_node": 299.9427,
        "meta_arg_of_pericenter": 88.9223,
        "meta_mean_anomaly": 298.5365,
        "meta_ephemeris_type": 0,
        "meta_classification_type": "U",
        "meta_norad_cat_id": 66381,
        "meta_element_set_no": 999,
        "meta_rev_at_epoch": 529,
        "meta_bstar": 0.0028763487,
        "meta_mean_motion_dot": 0.00116193,
        "meta_mean_motion_ddot": 0,
        "tle_line1": "1 66381U 25257B   25339.25002315  .00116193  00000+0  28763-2 0  9993",
        "tle_line2": "2 66381  53.1597 299.9427 0000729  88.9223 298.5365 15.39560488  5291"
      },
      "geometry": {
        "type": "Point",
        "coordinates": [
          -80.10440011170677,
          -19.968966571153317
        ]
      }
    }
  ]
}